{
"type": "FeatureCollection",
"name": "expected_buffer_school_500m",
"crs": { "type": "name", "properties": { "name": "urn:ogc:def:crs:OGC:1.3:CRS84" } },
"features": [
{ "type": "Feature", "properties": { "school_id": 1, "name": "School A" }, "geometry": { "type": "Polygon", "coordinates": [ [ [ 116.402849401890677, 39.908030269319248 ], [ 116.402825069310765, 39.907588583707586 ], [ 116.40274463908078, 39.9071508616126 ], [ 116.402608886829725, 39.906721318430876 ], [ 116.402419120891295, 39.906304090715992 ], [ 116.402177169666729, 39.90590319634844 ], [ 116.401885363983652, 39.905522495850732 ], [ 116.401546514621856, 39.905165655220351 ], [ 116.401163885223539, 39.904836110637966 ], [ 116.400741160849677, 39.904537035390064 ], [ 116.400282412485794, 39.904271309324074 ], [ 116.399792057839463, 39.904041491129774 ], [ 116.39927481880629, 39.903849793712901 ], [ 116.398735676014397, 39.903698062897831 ], [ 116.398179820883826, 39.903587759663836 ], [ 116.397612605661664, 39.90351994608551 ], [ 116.397039491913404, 39.903495275112263 ], [ 116.396465997964356, 39.903513984285205 ], [ 116.395897645796481, 39.903575893451524 ], [ 116.395339907910099, 39.90368040649841 ], [ 116.394798154660677, 39.903826517089925 ], [ 116.394277602576523, 39.904012818351561 ], [ 116.393783264153498, 39.904237516409559 ], [ 116.393319899608954, 39.904498447655051 ], [ 116.392891971058759, 39.904793099567115 ], [ 116.392503599557628, 39.905118634894734 ], [ 116.392158525416207, 39.905471918965446 ], [ 116.391860072176698, 39.905849549858083 ], [ 116.391611114594255, 39.906247891149988 ], [ 116.391414050932795, 39.906663106923432 ], [ 116.39127077984277, 39.90709119869512 ], [ 116.391182682044743, 39.907528043913352 ], [ 116.391150606995993, 39.907969435652426 ], [ 116.391174864670432, 39.90841112312264 ], [ 116.391255222531996, 39.908848852605551 ], [ 116.391390907732756, 39.909278408420704 ], [ 116.391580614515789, 39.909695653528978 ], [ 116.391822516753109, 39.91009656938148 ], [ 116.392114285499616, 39.910477294630049 ], [ 116.392453111395028, 39.910834162326047 ], [ 116.392835731698923, 39.911163735248678 ], [ 116.393258461699816, 39.91146283902237 ], [ 116.393717230195932, 39.91172859270344 ], [ 116.394207618706062, 39.911958436540893 ], [ 116.394724904033168, 39.912150156643541 ], [ 116.395264103770131, 39.912301906315186 ], [ 116.395820024308563, 39.912412223851938 ], [ 116.396387310887746, 39.91248004662954 ], [ 116.396960499199963, 39.912504721345051 ], [ 116.397534068054483, 39.912486010313572 ], [ 116.39810249259078, 39.91242409375932 ], [ 116.398660297527442, 39.91231956807902 ], [ 116.399202109932276, 39.912173440094108 ], [ 116.39972271100369, 39.911987117347515 ], [ 116.400217086363256, 39.911762394538648 ], [ 116.400680474374184, 39.911501436227525 ], [ 116.401108412018814, 39.911206755975229 ], [ 116.401496777892916, 39.910881192121828 ], [ 116.401841831902104, 39.910527880436035 ], [ 116.402140251277814, 39.910150223900246 ], [ 116.402389162566308, 39.909751859922572 ], [ 116.402586169282685, 39.909336625292546 ], [ 116.402729374964863, 39.908908519218087 ], [ 116.402817401405883, 39.908471664800601 ], [ 116.402849401890677, 39.908030269319248 ] ] ] } },
{ "type": "Feature", "properties": { "school_id": 2, "name": "School B" }, "geometry": { "type": "Polygon", "coordinates": [ [ [ 116.410849920760228, 39.914029869488367 ], [ 116.410825535123919, 39.913588185620547 ], [ 116.41074504735343, 39.913150469103329 ], [ 116.410609233632201, 39.912720935279353 ], [ 116.410419402885964, 39.912303720611931 ], [ 116.410177384140241, 39.911902842855667 ], [ 116.409885508872804, 39.911522162372918 ], [ 116.40954658853353, 39.911165344968254 ], [ 116.40916388744786, 39.910835826598515 ], [ 116.408741091366892, 39.910536780297633 ], [ 116.408282271966442, 39.910271085634214 ], [ 116.407791847637725, 39.910041300995573 ], [ 116.407274540946986, 39.909849638964275 ], [ 116.406735333173515, 39.909697945023964 ], [ 116.40617941636259, 39.909587679798861 ], [ 116.405612143354986, 39.909519904997651 ], [ 116.405038976272238, 39.909495273196448 ], [ 116.40446543395295, 39.909514021559254 ], [ 116.403897038844619, 39.90957596955603 ], [ 116.403339263860829, 39.909680520700235 ], [ 116.402797479714266, 39.909826668289213 ], [ 116.402276903230714, 39.910013005092331 ], [ 116.401782547141011, 39.910237736893748 ], [ 116.401319171832839, 39.910498699759806 ], [ 116.40089123952589, 39.910793380865172 ], [ 116.400502871311417, 39.91111894267781 ], [ 116.40015780746873, 39.911472250270265 ], [ 116.399859371441238, 39.911849901494861 ], [ 116.399610437818851, 39.912248259733147 ], [ 116.399413404635084, 39.912663488904137 ], [ 116.399270170247462, 39.913091590395432 ], [ 116.399182115023422, 39.91352844156161 ], [ 116.399150088010714, 39.91396983541955 ], [ 116.399174398720959, 39.914411521158932 ], [ 116.399254814107636, 39.914849245077853 ], [ 116.399390560769078, 39.915278791549227 ], [ 116.399580332356521, 39.915696023623688 ], [ 116.399822302117983, 39.916096922877713 ], [ 116.40011414045803, 39.916477628122784 ], [ 116.400453037345997, 39.916834472602744 ], [ 116.400835729357524, 39.917164019320239 ], [ 116.401258531090349, 39.917463094151962 ], [ 116.401717370651411, 39.917728816432884 ], [ 116.402207828874779, 39.91795862671438 ], [ 116.40272518189154, 39.918150311428406 ], [ 116.403264446642225, 39.918302024219685 ], [ 116.403820428891919, 39.918412303739494 ], [ 116.404387773285052, 39.918480087729876 ], [ 116.404961014956854, 39.918504723261556 ], [ 116.405534632202219, 39.918485973027181 ], [ 116.406103099694349, 39.918424017628688 ], [ 116.406660941737954, 39.918319453837114 ], [ 116.407202785043282, 39.918173288841075 ], [ 116.407723410511124, 39.917986930540195 ], [ 116.408217803528188, 39.917762173976456 ], [ 116.40868120228771, 39.917501184035117 ], [ 116.409109143668729, 39.917206474581988 ], [ 116.409497506231361, 39.916880884238481 ], [ 116.409842549913449, 39.916527549028544 ], [ 116.410140952046305, 39.9161498721611 ], [ 116.410389839342685, 39.91575149124008 ], [ 116.410586815549223, 39.91533624321815 ], [ 116.410729984498076, 39.914908127432113 ], [ 116.410817968336573, 39.91447126707677 ], [ 116.410849920760228, 39.914029869488367 ] ] ] } }
]
}
